GLOBALSTAR M075         
1 37192U 10054E   25247.35212082 -.00000064  00000+0  21974-3 0  9991
2 37192  51.9951 300.5009 0000449 111.7515 329.0332 12.62267401685843
GLOBALSTAR M073         
1 37193U 10054F   25247.68883192 -.00000108  00000+0 -24934-4 0  9994
2 37193  52.0044 213.3518 0000475  83.0140  88.5203 12.62262423687877
GLOBALSTAR M083         
1 37739U 11033A   25247.91880705 -.00000099  00000+0  28979-4 0  9992
2 37739  51.9850 161.2746 0000727  65.3856  11.2371 12.62275365656927
GLOBALSTAR M088         
1 37740U 11033B   25247.81913064 -.00000092  00000+0  68197-4 0  9997
2 37740  52.0217  67.3120 0000765  76.5980  26.8906 12.62267741652453
GLOBALSTAR M091         
1 37741U 11033C   25247.65373985 -.00000097  00000+0  39204-4 0  9994
2 37741  52.0021  31.2004 0000903  79.7957 293.0858 12.62269989653227
GLOBALSTAR M085         
1 37742U 11033D   25247.58133462 -.00000084  00000+0  10960-3 0  9994
2 37742  52.0158 342.4673 0000750  88.8003  14.5405 12.62264315653728
GLOBALSTAR M081         
1 37743U 11033E   25247.77456418 -.00000090  00000+0  74330-4 0  9994
2 37743  51.9989 344.6413 0000817 104.8703  35.9395 12.62267831653894
GLOBALSTAR M089         
1 37744U 11033F   25247.49008225 -.00000063  00000+0  22565-3 0  9995
2 37744  51.9936 299.7214 0000463 143.9959 324.3441 12.62266274654708
